[{"OBJECT_NAME":"SHENZHOU-22","OBJECT_ID":"2025-272A","EPOCH":"2026-03-12T05:04:02.976384","MEAN_MOTION":15.60804947,"ECCENTRICITY":0.00067688,"INCLINATION":41.4662,"RA_OF_ASC_NODE":192.8178,"ARG_OF_PERICENTER":286.7169,"MEAN_ANOMALY":73.2927,"EPHEMERIS_TYPE":0,"CLASSIFICATION_TYPE":"U","NORAD_CAT_ID":66645,"ELEMENT_SET_NO":999,"REV_AT_EPOCH":26752,"BSTAR":0.00031716932,"MEAN_MOTION_DOT":0.00026987,"MEAN_MOTION_DDOT":0},{"OBJECT_NAME":"SOYUZ-MS 28","OBJECT_ID":"2025-275A","EPOCH":"2026-03-12T03:49:12.417600","MEAN_MOTION":15.48595269,"ECCENTRICITY":0.00079841,"INCLINATION":51.6325,"RA_OF_ASC_NODE":60.1463,"ARG_OF_PERICENTER":183.4136,"MEAN_ANOMALY":176.6799,"EPHEMERIS_TYPE":0,"CLASSIFICATION_TYPE":"U","NORAD_CAT_ID":66664,"ELEMENT_SET_NO":999,"REV_AT_EPOCH":55452,"BSTAR":0.00017667487,"MEAN_MOTION_DOT":9.166e-5,"MEAN_MOTION_DDOT":0},{"OBJECT_NAME":"DUPLEX","OBJECT_ID":"1998-067XS","EPOCH":"2026-03-12T05:15:07.769952","MEAN_MOTION":15.5641315,"ECCENTRICITY":0.00025542,"INCLINATION":51.6293,"RA_OF_ASC_NODE":56.7987,"ARG_OF_PERICENTER":123.1889,"MEAN_ANOMALY":236.9348,"EPHEMERIS_TYPE":0,"CLASSIFICATION_TYPE":"U","NORAD_CAT_ID":66906,"ELEMENT_SET_NO":999,"REV_AT_EPOCH":1552,"BSTAR":0.00052837729,"MEAN_MOTION_DOT":0.00037736,"MEAN_MOTION_DDOT":0},{"OBJECT_NAME":"ISS OBJECT XT","OBJECT_ID":"1998-067XT","EPOCH":"2026-03-12T04:38:03.406272","MEAN_MOTION":15.70120533,"ECCENTRICITY":0.00047038,"INCLINATION":51.625,"RA_OF_ASC_NODE":52.8597,"ARG_OF_PERICENTER":94.7778,"MEAN_ANOMALY":265.3756,"EPHEMERIS_TYPE":0,"CLASSIFICATION_TYPE":"U","NORAD_CAT_ID":66907,"ELEMENT_SET_NO":999,"REV_AT_EPOCH":1557,"BSTAR":0.0013956889,"MEAN_MOTION_DOT":0.00175431,"MEAN_MOTION_DDOT":0},{"OBJECT_NAME":"ISS OBJECT XU","OBJECT_ID":"1998-067XU","EPOCH":"2026-03-12T04:35:10.207968","MEAN_MOTION":15.7025379,"ECCENTRICITY":0.00048498,"INCLINATION":51.6251,"RA_OF_ASC_NODE":52.8423,"ARG_OF_PERICENTER":95.5022,"MEAN_ANOMALY":264.6529,"EPHEMERIS_TYPE":0,"CLASSIFICATION_TYPE":"U","NORAD_CAT_ID":66908,"ELEMENT_SET_NO":999,"REV_AT_EPOCH":1557,"BSTAR":0.0013761345,"MEAN_MOTION_DOT":0.00173902,"MEAN_MOTION_DDOT":0},{"OBJECT_NAME":"SILVERSAT","OBJECT_ID":"1998-067XV","EPOCH":"2026-03-12T04:30:05.692032","MEAN_MOTION":15.73352402,"ECCENTRICITY":0.00054282,"INCLINATION":51.6249,"RA_OF_ASC_NODE":52.0679,"ARG_OF_PERICENTER":93.6368,"MEAN_ANOMALY":266.5252,"EPHEMERIS_TYPE":0,"CLASSIFICATION_TYPE":"U","NORAD_CAT_ID":66909,"ELEMENT_SET_NO":999,"REV_AT_EPOCH":1558,"BSTAR":0.0015879127,"MEAN_MOTION_DOT":0.00230471,"MEAN_MOTION_DDOT":0},{"OBJECT_NAME":"ISS OBJECT XW","OBJECT_ID":"1998-067XW","EPOCH":"2026-03-12T07:35:39.532992","MEAN_MOTION":15.69426524,"ECCENTRICITY":0.00053484,"INCLINATION":51.6247,"RA_OF_ASC_NODE":52.1756,"ARG_OF_PERICENTER":102.3551,"MEAN_ANOMALY":257.8045,"EPHEMERIS_TYPE":0,"CLASSIFICATION_TYPE":"U","NORAD_CAT_ID":66910,"ELEMENT_SET_NO":999,"REV_AT_EPOCH":1559,"BSTAR":0.0013156676,"MEAN_MOTION_DOT":0.00160368,"MEAN_MOTION_DDOT":0},{"OBJECT_NAME":"ISS OBJECT XX","OBJECT_ID":"1998-067XX","EPOCH":"2026-03-12T04:18:18.825984","MEAN_MOTION":15.76798851,"ECCENTRICITY":0.00069979,"INCLINATION":51.6228,"RA_OF_ASC_NODE":51.2413,"ARG_OF_PERICENTER":99.7488,"MEAN_ANOMALY":260.4303,"EPHEMERIS_TYPE":0,"CLASSIFICATION_TYPE":"U","NORAD_CAT_ID":66911,"ELEMENT_SET_NO":999,"REV_AT_EPOCH":1558,"BSTAR":0.0016961278,"MEAN_MOTION_DOT":0.00288232,"MEAN_MOTION_DDOT":0},{"OBJECT_NAME":"ISS OBJECT XY","OBJECT_ID":"1998-067XY","EPOCH":"2026-03-12T04:50:05.936640","MEAN_MOTION":15.64208185,"ECCENTRICITY":0.00033066,"INCLINATION":51.6274,"RA_OF_ASC_NODE":54.4268,"ARG_OF_PERICENTER":103.5482,"MEAN_ANOMALY":256.5881,"EPHEMERIS_TYPE":0,"CLASSIFICATION_TYPE":"U","NORAD_CAT_ID":66912,"ELEMENT_SET_NO":999,"REV_AT_EPOCH":1554,"BSTAR":0.001045182,"MEAN_MOTION_DOT":0.00102225,"MEAN_MOTION_DDOT":0},{"OBJECT_NAME":"KNACKSAT-2","OBJECT_ID":"1998-067XZ","EPOCH":"2026-03-12T05:44:04.244928","MEAN_MOTION":15.52051154,"ECCENTRICITY":0.0009518,"INCLINATION":51.6313,"RA_OF_ASC_NODE":59.1802,"ARG_OF_PERICENTER":194.9856,"MEAN_ANOMALY":165.0853,"EPHEMERIS_TYPE":0,"CLASSIFICATION_TYPE":"U","NORAD_CAT_ID":67683,"ELEMENT_SET_NO":999,"REV_AT_EPOCH":518,"BSTAR":0.00070562442,"MEAN_MOTION_DOT":0.00043165,"MEAN_MOTION_DDOT":0},{"OBJECT_NAME":"GXIBA-1","OBJECT_ID":"1998-067YA","EPOCH":"2026-03-12T03:26:06.837216","MEAN_MOTION":15.54753471,"ECCENTRICITY":0.00112542,"INCLINATION":51.6306,"RA_OF_ASC_NODE":59.2916,"ARG_OF_PERICENTER":184.0724,"MEAN_ANOMALY":176.0177,"EPHEMERIS_TYPE":0,"CLASSIFICATION_TYPE":"U","NORAD_CAT_ID":67684,"ELEMENT_SET_NO":999,"REV_AT_EPOCH":517,"BSTAR":0.0012130385,"MEAN_MOTION_DOT":0.00082736,"MEAN_MOTION_DDOT":0},{"OBJECT_NAME":"CORAL","OBJECT_ID":"1998-067YB","EPOCH":"2026-03-12T05:36:47.816064","MEAN_MOTION":15.52443441,"ECCENTRICITY":0.00114226,"INCLINATION":51.6309,"RA_OF_ASC_NODE":59.1474,"ARG_OF_PERICENTER":191.5004,"MEAN_ANOMALY":168.5727,"EPHEMERIS_TYPE":0,"CLASSIFICATION_TYPE":"U","NORAD_CAT_ID":67685,"ELEMENT_SET_NO":999,"REV_AT_EPOCH":518,"BSTAR":0.00079090047,"MEAN_MOTION_DOT":0.00049209,"MEAN_MOTION_DDOT":0},{"OBJECT_NAME":"ISS OBJECT YC","OBJECT_ID":"1998-067YC","EPOCH":"2026-03-12T05:27:31.037184","MEAN_MOTION":15.53034287,"ECCENTRICITY":0.00081467,"INCLINATION":51.6316,"RA_OF_ASC_NODE":59.1062,"ARG_OF_PERICENTER":159.4103,"MEAN_ANOMALY":200.7217,"EPHEMERIS_TYPE":0,"CLASSIFICATION_TYPE":"U","NORAD_CAT_ID":67686,"ELEMENT_SET_NO":999,"REV_AT_EPOCH":518,"BSTAR":0.00092196639,"MEAN_MOTION_DOT":0.00058683,"MEAN_MOTION_DDOT":0},{"OBJECT_NAME":"LEOPARD","OBJECT_ID":"1998-067YD","EPOCH":"2026-03-12T05:40:16.274208","MEAN_MOTION":15.52242324,"ECCENTRICITY":0.00080171,"INCLINATION":51.6323,"RA_OF_ASC_NODE":59.1654,"ARG_OF_PERICENTER":163.4161,"MEAN_ANOMALY":196.7093,"EPHEMERIS_TYPE":0,"CLASSIFICATION_TYPE":"U","NORAD_CAT_ID":67687,"ELEMENT_SET_NO":999,"REV_AT_EPOCH":510,"BSTAR":0.00074707296,"MEAN_MOTION_DOT":0.00046038,"MEAN_MOTION_DDOT":0},{"OBJECT_NAME":"ISS OBJECT YE","OBJECT_ID":"1998-067YE","EPOCH":"2026-03-12T05:31:43.783104","MEAN_MOTION":15.52760084,"ECCENTRICITY":0.00080001,"INCLINATION":51.6315,"RA_OF_ASC_NODE":59.1259,"ARG_OF_PERICENTER":160.3071,"MEAN_ANOMALY":199.8229,"EPHEMERIS_TYPE":0,"CLASSIFICATION_TYPE":"U","NORAD_CAT_ID":67688,"ELEMENT_SET_NO":999,"REV_AT_EPOCH":510,"BSTAR":0.0008749604,"MEAN_MOTION_DOT":0.00055087,"MEAN_MOTION_DDOT":0},{"OBJECT_NAME":"CREW DRAGON 12","OBJECT_ID":"2026-031A","EPOCH":"2026-03-12T03:49:12.417600","MEAN_MOTION":15.48595269,"ECCENTRICITY":0.00079841,"INCLINATION":51.6325,"RA_OF_ASC_NODE":60.1463,"ARG_OF_PERICENTER":183.4136,"MEAN_ANOMALY":176.6799,"EPHEMERIS_TYPE":0,"CLASSIFICATION_TYPE":"U","NORAD_CAT_ID":67796,"ELEMENT_SET_NO":999,"REV_AT_EPOCH":55661,"BSTAR":0.00017667487,"MEAN_MOTION_DOT":9.166e-5,"MEAN_MOTION_DDOT":0}]
