SHENZHOU-22             
1 66645U 25272A   26071.21114556  .00026987  00000+0  31717-3 0  9999
2 66645  41.4662 192.8178 0006768 286.7169  73.2927 15.60804947267520
SOYUZ-MS 28             
1 66664U 25275A   26071.15917150  .00009166  00000+0  17667-3 0  9995
2 66664  51.6325  60.1463 0007984 183.4136 176.6799 15.48595269554526
DUPLEX                  
1 66906U 98067XS  26071.21883993  .00037736  00000+0  52838-3 0  9990
2 66906  51.6293  56.7987 0002554 123.1889 236.9348 15.56413150 15524
ISS OBJECT XT           
1 66907U 98067XT  26071.19309498  .00175431  00000+0  13957-2 0  9994
2 66907  51.6250  52.8597 0004703  94.7778 265.3756 15.70120533 15570
ISS OBJECT XU           
1 66908U 98067XU  26071.19109037  .00173902  00000+0  13761-2 0  9996
2 66908  51.6251  52.8423 0004849  95.5022 264.6529 15.70253790 15574
SILVERSAT               
1 66909U 98067XV  26071.18756588  .00230471  00000+0  15879-2 0  9992
2 66909  51.6249  52.0679 0005428  93.6368 266.5252 15.73352402 15581
ISS OBJECT XW           
1 66910U 98067XW  26071.31642978  .00160368  00000+0  13157-2 0  9990
2 66910  51.6247  52.1756 0005348 102.3551 257.8045 15.69426524 15597
ISS OBJECT XX           
1 66911U 98067XX  26071.17938456  .00288232  00000+0  16961-2 0  9991
2 66911  51.6228  51.2413 0006997  99.7488 260.4303 15.76798851 15585
ISS OBJECT XY           
1 66912U 98067XY  26071.20145760  .00102225  00000+0  10452-2 0  9990
2 66912  51.6274  54.4268 0003306 103.5482 256.5881 15.64208185 15545
KNACKSAT-2              
1 67683U 98067XZ  26071.23893802  .00043165  00000+0  70562-3 0  9992
2 67683  51.6313  59.1802 0009518 194.9856 165.0853 15.52051154  5182
GXIBA-1                 
1 67684U 98067YA  26071.14313469  .00082736  00000+0  12130-2 0  9992
2 67684  51.6306  59.2916 0011254 184.0724 176.0177 15.54753471  5179
CORAL                   
1 67685U 98067YB  26071.23388676  .00049209  00000+0  79090-3 0  9992
2 67685  51.6309  59.1474 0011422 191.5004 168.5727 15.52443441  5181
ISS OBJECT YC           
1 67686U 98067YC  26071.22744256  .00058683  00000+0  92197-3 0  9991
2 67686  51.6316  59.1062 0008146 159.4103 200.7217 15.53034287  5183
LEOPARD                 
1 67687U 98067YD  26071.23629947  .00046038  00000+0  74707-3 0  9990
2 67687  51.6323  59.1654 0008017 163.4161 196.7093 15.52242324  5105
ISS OBJECT YE           
1 67688U 98067YE  26071.23036786  .00055087  00000+0  87496-3 0  9997
2 67688  51.6315  59.1259 0008000 160.3071 199.8229 15.52760084  5109
CREW DRAGON 12          
1 67796U 26031A   26071.15917150  .00009166  00000+0  17667-3 0  9993
2 67796  51.6325  60.1463 0007984 183.4136 176.6799 15.48595269556615
